[{"OBJECT_NAME":"STARLINK-1460","OBJECT_ID":"2020-035V","EPOCH":"2026-03-10T00:00:02.999808","MEAN_MOTION":15.29345467,"ECCENTRICITY":0.00012811,"INCLINATION":53.1565,"RA_OF_ASC_NODE":63.4675,"ARG_OF_PERICENTER":91.2928,"MEAN_ANOMALY":339.6328,"EPHEMERIS_TYPE":0,"CLASSIFICATION_TYPE":"U","NORAD_CAT_ID":45676,"ELEMENT_SET_NO":999,"REV_AT_EPOCH":559,"BSTAR":0.0010490581,"MEAN_MOTION_DOT":0.00030028,"MEAN_MOTION_DDOT":0},{"OBJECT_NAME":"EOSSAT-1","OBJECT_ID":"2023-001AW","EPOCH":"2026-03-09T17:40:07.010400","MEAN_MOTION":15.32339828,"ECCENTRICITY":0.00112629,"INCLINATION":97.3357,"RA_OF_ASC_NODE":130.2294,"ARG_OF_PERICENTER":110.3168,"MEAN_ANOMALY":249.9285,"EPHEMERIS_TYPE":0,"CLASSIFICATION_TYPE":"U","NORAD_CAT_ID":55053,"ELEMENT_SET_NO":999,"REV_AT_EPOCH":17668,"BSTAR":0.00024844399,"MEAN_MOTION_DOT":7.695e-5,"MEAN_MOTION_DDOT":0}]
